NORAD_CAT_ID,OBJECT_NAME,OBJECT_TYPE,EPOCH,MEAN_MOTION,ECCENTRICITY,INCLINATION,RA_OF_ASC_NODE,ARG_OF_PERICENTER,MEAN_ANOMALY,BSTAR,MEAN_MOTION_DOT,MEAN_MOTION_DDOT,TLE_LINE0,TLE_LINE1,TLE_LINE2,SEMIMAJOR_AXIS,PERIOD,APOGEE,PERIGEE,DECAYED
55668.0,STARLINK-5455,PAYLOAD,2023-07-15 00:53:01,15.69899476,0.0003252,69.9998,95.8842,259.5039,100.5791,-4.2619e-05,-5.329e-05,0.0,0 STARLINK-5455,1 55668U 23021AS  23196.03682087 -.00005329  00000-0 -42619-4 0  9990,2 55668  69.9998  95.8842 0003252 259.5039 100.5791 15.69899476 23656,6737.322,91.726,361.378,356.996,0.0
55668.0,STARLINK-5455,PAYLOAD,2023-07-15 17:42:17,15.69925862,0.0003066,70.0005,93.9165,273.8475,86.237,7.1966e-06,6.53e-06,0.0,0 STARLINK-5455,1 55668U 23021AS  23196.73769709  .00000653  00000-0  71966-5 0  9995,2 55668  70.0005  93.9165 0003066 273.8475  86.2370 15.69925862 23765,6737.246,91.724,361.177,357.045,0.0
55668.0,STARLINK-5455,PAYLOAD,2023-07-16 02:52:48,15.69906564,0.0002687,70.0009,92.839,268.2853,91.8035,-2.2703e-05,-2.939e-05,0.0,0 STARLINK-5455,1 55668U 23021AS  23197.12000486 -.00002939  00000-0 -22703-4 0  9994,2 55668  70.0009  92.8390 0002687 268.2853  91.8035 15.69906564 23828,6737.301,91.725,360.977,357.356,0.0
55668.0,STARLINK-5455,PAYLOAD,2023-07-16 16:38:33,15.69921153,0.000353,70.0007,91.2255,258.4563,101.6237,4.1849e-06,2.9e-06,0.0,0 STARLINK-5455,1 55668U 23021AS  23197.69344763  .00000290  00000-0  41849-5 0  9994,2 55668  70.0007  91.2255 0003530 258.4563 101.6237 15.69921153 23911,6737.26,91.724,361.503,356.746,0.0
55668.0,STARLINK-5455,PAYLOAD,2023-07-16 19:42:03,15.69927605,0.0003533,70.0006,90.8703,263.1448,96.9346,1.4596e-05,1.543e-05,0.0,0 STARLINK-5455,1 55668U 23021AS  23197.82087871  .00001543  00000-0  14596-4 0  9993,2 55668  70.0006  90.8703 0003533 263.1448  96.9346 15.69927605 23938,6737.241,91.724,361.486,356.726,0.0
55668.0,STARLINK-5455,PAYLOAD,2023-07-18 02:17:06,15.6992677,0.0003522,69.9995,87.2858,275.8569,84.2225,-1.1411e-05,-1.585e-05,0.0,0 STARLINK-5455,1 55668U 23021AS  23199.09521191 -.00001585  00000-0 -11411-4 0  9993,2 55668  69.9995  87.2858 0003522 275.8569  84.2225 15.69926770 24136,6737.244,91.724,361.481,356.736,0.0
55668.0,STARLINK-5455,PAYLOAD,2023-07-19 02:45:08,15.69927132,0.0003905,69.9968,84.4185,272.3363,87.7386,-3.0217e-06,-5.77e-06,0.0,0 STARLINK-5455,1 55668U 23021AS  23200.11468071 -.00000577  00000-0 -30217-5 0  9992,2 55668  69.9968  84.4185 0003905 272.3363  87.7386 15.69927132 24293,6737.242,91.724,361.738,356.477,0.0
55668.0,STARLINK-5455,PAYLOAD,2023-07-19 18:02:39,15.69920517,0.0003778,69.9971,82.6267,272.964,87.1123,1.2371e-05,1.275e-05,0.0,0 STARLINK-5455,1 55668U 23021AS  23200.75185142  .00001275  00000-0  12371-4 0  9991,2 55668  69.9971  82.6267 0003778 272.9640  87.1123 15.69920517 24394,6737.261,91.724,361.672,356.581,0.0
55668.0,STARLINK-5455,PAYLOAD,2023-07-20 15:27:09,15.69942103,0.0003696,69.9971,80.1184,265.4235,94.6538,3.463e-05,3.956e-05,0.0,0 STARLINK-5455,1 55668U 23021AS  23201.64386197  .00003956  00000-0  34630-4 0  9993,2 55668  69.9971  80.1184 0003696 265.4235  94.6538 15.69942103 24535,6737.2,91.723,361.555,356.575,0.0
55668.0,STARLINK-5455,PAYLOAD,2023-07-21 02:09:27,15.69915538,0.0003594,69.9976,78.8644,268.1211,91.9573,3.1656e-06,1.68e-06,0.0,0 STARLINK-5455,1 55668U 23021AS  23202.08990096  .00000168  00000-0  31656-5 0  9999,2 55668  69.9976  78.8644 0003594 268.1211  91.9573 15.69915538 24605,6737.276,91.725,361.562,356.719,0.0
55668.0,STARLINK-5455,PAYLOAD,2023-07-24 02:01:48,15.69917167,0.0003053,69.9976,70.4432,270.2091,89.8755,1.3574e-05,1.419e-05,0.0,0 STARLINK-5455,1 55668U 23021AS  23205.08459202  .00001419  00000-0  13574-4 0  9999,2 55668  69.9976  70.4432 0003053 270.2091  89.8755 15.69917167 25382,6737.271,91.725,361.193,357.079,0.0
55668.0,STARLINK-5455,PAYLOAD,2023-07-25 00:58:05,15.6992808,0.0003713,69.997,67.7569,274.4333,85.6439,2.8282e-06,1.27e-06,0.0,0 STARLINK-5455,1 55668U 23021AS  23206.04033630  .00000127  00000-0  28282-5 0  9997,2 55668  69.9970  67.7569 0003713 274.4333  85.6439 15.69928080 25530,6737.24,91.724,361.606,356.603,0.0
55668.0,STARLINK-5455,PAYLOAD,2023-07-26 01:26:06,15.69927154,0.0003817,69.9979,64.8902,260.83,99.2464,1.2296e-05,1.266e-05,0.0,0 STARLINK-5455,1 55668U 23021AS  23207.05980063  .00001266  00000-0  12296-4 0  9992,2 55668  69.9979  64.8902 0003817 260.8300  99.2464 15.69927154 25693,6737.242,91.724,361.679,356.536,0.0
55668.0,STARLINK-5455,PAYLOAD,2023-07-26 21:18:46,15.69998629,0.0005995,69.9971,62.5585,239.8969,120.1632,8.6257e-05,0.00010209,0.0,0 STARLINK-5455,1 55668U 23021AS  23207.88803370  .00010209  00000-0  86257-4 0  9993,2 55668  69.9971  62.5585 0005995 239.8969 120.1632 15.69998629 25824,6737.038,91.72,362.942,354.864,0.0
55668.0,STARLINK-5455,PAYLOAD,2023-07-27 00:22:27,15.6987039,0.0004396,69.9957,62.2025,258.5699,101.5003,2.6497e-05,2.968e-05,0.0,0 STARLINK-5455,1 55668U 23021AS  23208.01559144  .00002968  00000-0  26497-4 0  9999,2 55668  69.9957  62.2025 0004396 258.5699 101.5003 15.69870390 25533,6737.405,91.727,362.232,356.308,0.0
55668.0,STARLINK-5455,PAYLOAD,2023-07-27 08:00:21,15.70661651,0.0008078,69.996,61.3038,339.4395,20.6474,0.00090367,0.00113505,0.0,0 STARLINK-5455,1 55668U 23021AS  23208.33357953  .00113505  00000-0  90367-3 0  9994,2 55668  69.9960  61.3038 0008078 339.4395  20.6474 15.70661651 25582,6735.142,91.681,362.448,351.566,0.0
55668.0,STARLINK-5455,PAYLOAD,2023-07-27 22:00:00,15.66653301,0.0003451,70.0,59.68,275.0432,126.6692,-0.0090545,-0.00859799,0.0,0 STARLINK-5455,1 55668U 23021AS  23208.91667824 -.00859799  00000-0 -90545-2 0  9990,2 55668  70.0000  59.6800 0003451 275.0432 126.6692 15.66653301 25682,6746.625,91.916,370.818,366.162,0.0
55668.0,STARLINK-5455,PAYLOAD,2023-07-28 14:00:01,15.65402593,0.0003277,70.0,57.8169,263.7508,295.2492,-0.01048,-0.00952035,0.0,0 STARLINK-5455,1 55668U 23021AS  23209.58334491 -.00952035  00000-0 -10480-1 0  9991,2 55668  70.0000  57.8169 0003277 263.7508 295.2492 15.65402593 25780,6750.218,91.989,374.295,369.871,0.0
55668.0,STARLINK-5455,PAYLOAD,2023-07-29 14:00:01,15.63441336,0.0003404,69.9996,55.028,267.9708,161.1911,-0.011253,-0.00946161,0.0,0 STARLINK-5455,1 55668U 23021AS  23210.58335648 -.00946161  00000-0 -11253-1 0  9990,2 55668  69.9996  55.0280 0003404 267.9708 161.1911 15.63441336 25946,6755.862,92.105,380.027,375.427,0.0
55668.0,STARLINK-5455,PAYLOAD,2023-07-30 14:00:01,15.6148746,0.0003494,69.9994,52.2475,264.9569,27.1926,-0.012189,-0.00949139,0.0,0 STARLINK-5455,1 55668U 23021AS  23211.58334491 -.00949139  00000-0 -12189-1 0  9993,2 55668  69.9994  52.2475 0003494 264.9569  27.1926 15.61487460 26090,6761.497,92.22,385.724,380.999,0.0
55668.0,STARLINK-5455,PAYLOAD,2023-07-31 14:00:01,15.59524704,0.0003507,69.9992,49.4747,267.6065,240.5589,-0.012997,-0.00939338,0.0,0 STARLINK-5455,1 55668U 23021AS  23212.58334491 -.00939338  00000-0 -12997-1 0  9991,2 55668  69.9992  49.4747 0003507 267.6065 240.5589 15.59524704 26258,6767.169,92.336,391.407,386.66,0.0
55668.0,STARLINK-5455,PAYLOAD,2023-08-01 22:00:00,15.56865411,0.0003609,69.9986,45.7899,274.7012,150.5454,-0.013051,-0.00860267,0.0,0 STARLINK-5455,1 55668U 23021AS  23213.91667824 -.00860267  00000-0 -13051-1 0  9994,2 55668  69.9986  45.7899 0003609 274.7012 150.5454 15.56865411 26466,6774.873,92.494,399.183,394.292,0.0
55668.0,STARLINK-5455,PAYLOAD,2023-08-02 14:00:01,15.55621613,0.0003378,69.999,43.9534,266.8886,292.1798,-0.015465,-0.00962543,0.0,0 STARLINK-5455,1 55668U 23021AS  23214.58334491 -.00962543  00000-0 -15465-1 0  9990,2 55668  69.9990  43.9534 0003378 266.8886 292.1798 15.55621613 26569,6778.483,92.567,402.638,398.059,0.0
55668.0,STARLINK-5455,PAYLOAD,2023-08-03 06:00:00,15.5425641,0.0003411,69.9987,42.1199,269.8448,59.957,-0.014692,-0.00877569,0.0,0 STARLINK-5455,1 55668U 23021AS  23215.25001157 -.00877569  00000-0 -14692-1 0  9999,2 55668  69.9987  42.1199 0003411 269.8448  59.9570 15.54256410 26664,6782.452,92.649,406.631,402.004,0.0
55668.0,STARLINK-5455,PAYLOAD,2023-08-03 22:00:00,15.52965021,0.0003298,69.9993,40.2905,276.3174,181.0561,-0.015501,-0.00882753,0.0,0 STARLINK-5455,1 55668U 23021AS  23215.91667824 -.00882753  00000-0 -15501-1 0  9992,2 55668  69.9993  40.2905 0003298 276.3174 181.0561 15.52965021 26779,6786.212,92.726,410.315,405.838,0.0
55668.0,STARLINK-5455,PAYLOAD,2023-08-04 22:00:00,15.51165451,0.0003533,69.9994,37.5535,275.2183,7.7051,0.0010681,0.00062945,0.0,0 STARLINK-5455,1 55668U 23021AS  23216.91667824  .00062945  00000-0  10681-2 0  9999,2 55668  69.9994  37.5535 0003533 275.2183   7.7051 15.51165451 26921,6791.459,92.833,415.724,410.925,0.0
55668.0,STARLINK-5455,PAYLOAD,2023-08-05 22:00:01,15.51196561,0.0003736,70.0005,34.8194,277.4681,188.273,0.00078248,0.00046022,0.0,0 STARLINK-5455,1 55668U 23021AS  23217.91668981  .00046022  00000-0  78248-3 0  9997,2 55668  70.0005  34.8194 0003736 277.4681 188.2730 15.51196561 27083,6791.368,92.832,415.771,410.696,0.0
55668.0,STARLINK-5455,PAYLOAD,2023-08-06 14:00:01,15.51278389,0.0003791,70.0008,32.9968,271.563,315.8805,-0.0013982,-0.00081618,0.0,0 STARLINK-5455,1 55668U 23021AS  23218.58334491 -.00081618  00000-0 -13982-2 0  9992,2 55668  70.0008  32.9968 0003791 271.5630 315.8805 15.51278389 27185,6791.13,92.827,415.569,410.42,0.0
55668.0,STARLINK-5455,PAYLOAD,2023-08-06 22:00:00,15.51432598,0.0003698,70.0008,32.0852,273.602,14.7544,-0.012592,-0.00684316,0.0,0 STARLINK-5455,1 55668U 23021AS  23218.91667824 -.00684316  00000-0 -12592-1 0  9997,2 55668  70.0008  32.0852 0003698 273.6020  14.7544 15.51432598 27235,6790.679,92.817,415.056,410.033,0.0
55668.0,STARLINK-5455,PAYLOAD,2023-08-07 06:00:00,15.50890411,0.0003511,70.0007,31.1743,266.4335,82.81,-0.016056,-0.00851463,0.0,0 STARLINK-5455,1 55668U 23021AS  23219.25001157 -.00851463  00000-0 -16056-1 0  9994,2 55668  70.0007  31.1743 0003511 266.4335  82.8100 15.50890411 27297,6792.262,92.85,416.512,411.742,0.0
